STARLINK-1577
1 16063C 20055AN  21326.15539369  .00000338  00000-0  22631-4 0  3262
2 16063  53.0539 318.0464 0001928  57.6537 237.8941 15.06384026    15
